[{"OBJECT_NAME":"ORBCOMM FM19","OBJECT_ID":"1998-046C","EPOCH":"2026-03-09T00:07:17.563296","MEAN_MOTION":14.39270127,"ECCENTRICITY":0.00018158,"INCLINATION":44.9959,"RA_OF_ASC_NODE":359.683,"ARG_OF_PERICENTER":187.4459,"MEAN_ANOMALY":272.3467,"EPHEMERIS_TYPE":0,"CLASSIFICATION_TYPE":"U","NORAD_CAT_ID":25415,"ELEMENT_SET_NO":999,"REV_AT_EPOCH":44234,"BSTAR":0.00058926699,"MEAN_MOTION_DOT":1.703e-5,"MEAN_MOTION_DDOT":0},{"OBJECT_NAME":"THOR BURNER 2 R\/B","OBJECT_ID":"1967-010B","EPOCH":"2026-03-09T20:44:05.454528","MEAN_MOTION":14.29207815,"ECCENTRICITY":0.00518594,"INCLINATION":98.9637,"RA_OF_ASC_NODE":19.8408,"ARG_OF_PERICENTER":212.6521,"MEAN_ANOMALY":147.145,"EPHEMERIS_TYPE":0,"CLASSIFICATION_TYPE":"U","NORAD_CAT_ID":2741,"ELEMENT_SET_NO":999,"REV_AT_EPOCH":7108,"BSTAR":0.00011835567,"MEAN_MOTION_DOT":2.58e-6,"MEAN_MOTION_DDOT":0}]
